[
    {
        "code": "AD",
        "emoji": "ğŸ‡¦ğŸ‡©",
        "unicode": "U+1F1E6 U+1F1E9",
        "name": "æ•°æ®ç§‘å­¦ä¸å·¥ç¨‹å­¦é™¢",
        "title": "flag for Andorra",
        "dialCode": "+376"
    },
    {
        "code": "AE",
        "emoji": "ğŸ‡¦ğŸ‡ª",
        "unicode": "U+1F1E6 U+1F1EA",
        "name": "é€šä¿¡ä¸ç”µå­å·¥ç¨‹å­¦é™¢",
        "title": "flag for United Arab Emirates",
        "dialCode": "+971"
    },
    {
        "code": "AF",
        "emoji": "ğŸ‡¦ğŸ‡«",
        "unicode": "U+1F1E6 U+1F1EB",
        "name": "ç”Ÿæ€ä¸ç¯å¢ƒç§‘å­¦å­¦é™¢",
        "title": "flag for Afghanistan",
        "dialCode": "+93"
    },
    {
        "code": "AG",
        "emoji": "ğŸ‡¦ğŸ‡¬",
        "unicode": "U+1F1E6 U+1F1EC",
        "name": "ç‰©ç†ä¸ç”µå­ç§‘å­¦å­¦é™¢",
        "title": "flag for Antigua and Barbuda",
        "dialCode": "+1268"
    },
    {
        "code": "AI",
        "emoji": "ğŸ‡¦ğŸ‡®",
        "unicode": "U+1F1E6 U+1F1EE",
        "name": "åŒ–å­¦ä¸åˆ†å­å·¥ç¨‹å­¦é™¢",
        "title": "flag for Anguilla",
        "dialCode": "+1 264"
    },
    {
        "code": "AL",
        "emoji": "ğŸ‡¦ğŸ‡±",
        "unicode": "U+1F1E6 U+1F1F1",
        "name": "å›½é™…æ±‰è¯­æ–‡åŒ–å­¦é™¢",
        "title": "flag for Albania",
        "dialCode": "+355"
    },
    {
        "code": "AM",
        "emoji": "ğŸ‡¦ğŸ‡²",
        "unicode": "U+1F1E6 U+1F1F2",
        "name": "åœ°ç†ç§‘å­¦å­¦é™¢",
        "title": "flag for Armenia",
        "dialCode": "+374"
    },
    {
        "code": "AO",
        "emoji": "ğŸ‡¦ğŸ‡´",
        "unicode": "U+1F1E6 U+1F1F4",
        "name": "åŸå¸‚ä¸åŒºåŸŸç§‘å­¦å­¦é™¢",
        "title": "flag for Angola",
        "dialCode": "+244"
    },
    {
        "code": "AQ",
        "emoji": "ğŸ‡¦ğŸ‡¶",
        "unicode": "U+1F1E6 U+1F1F6",
        "name": "å†å²å­¦é™¢",
        "title": "flag for Antarctica",
        "dialCode": null
    },
    {
        "code": "AR",
        "emoji": "ğŸ‡¦ğŸ‡·",
        "unicode": "U+1F1E6 U+1F1F7",
        "name": "ç”Ÿå‘½ç§‘å­¦å­¦é™¢",
        "title": "flag for Argentina",
        "dialCode": "+54"
    },
    {
        "code": "AS",
        "emoji": "ğŸ‡¦ğŸ‡¸",
        "unicode": "U+1F1E6 U+1F1F8",
        "name": "æ•°å­¦ç§‘å­¦å­¦é™¢",
        "title": "flag for American Samoa",
        "dialCode": "+1 684"
    },
    {
        "code": "AT",
        "emoji": "ğŸ‡¦ğŸ‡¹",
        "unicode": "U+1F1E6 U+1F1F9",
        "name": "ç¤¾ä¼šå‘å±•å­¦é™¢",
        "title": "flag for Austria",
        "dialCode": "+43"
    },
    {
        "code": "AU",
        "emoji": "ğŸ‡¦ğŸ‡º",
        "unicode": "U+1F1E6 U+1F1FA",
        "name": "ä¸­å›½è¯­è¨€æ–‡å­¦ç³»",
        "title": "flag for Australia",
        "dialCode": "+61"
    },
    {
        "code": "AW",
        "emoji": "ğŸ‡¦ğŸ‡¼",
        "unicode": "U+1F1E6 U+1F1FC",
        "name": "ç»æµä¸ç®¡ç†å­¦éƒ¨",
        "title": "flag for Aruba",
        "dialCode": "+297"
    },
    {
        "code": "AX",
        "emoji": "ğŸ‡¦ğŸ‡½",
        "unicode": "U+1F1E6 U+1F1FD",
        "name": "å­Ÿå®ªæ‰¿ä¹¦é™¢",
        "title": "flag for Ã…land Islands",
        "dialCode": ""
    },
    {
        "code": "AZ",
        "emoji": "ğŸ‡¦ğŸ‡¿",
        "unicode": "U+1F1E6 U+1F1FF",
        "name": "è®¡ç®—æœºç§‘å­¦ä¸æŠ€æœ¯å­¦é™¢",
        "title": "flag for Azerbaijan",
        "dialCode": "+994"
    },
    {
        "code": "BA",
        "emoji": "ğŸ‡§ğŸ‡¦",
        "unicode": "U+1F1E7 U+1F1E6",
        "name": "å¿ƒç†ä¸è®¤çŸ¥ç§‘å­¦å­¦é™¢",
        "title": "flag for Bosnia and Herzegovina",
        "dialCode": "+387"
    },
    {
        "code": "BB",
        "emoji": "ğŸ‡§ğŸ‡§",
        "unicode": "U+1F1E7 U+1F1E7",
        "name": "å¤–è¯­å­¦é™¢",
        "title": "flag for Barbados",
        "dialCode": "+1 246"
    },
    {
        "code": "BD",
        "emoji": "ğŸ‡§ğŸ‡©",
        "unicode": "U+1F1E7 U+1F1E9",
        "name": "ä¼ æ’­å­¦é™¢",
        "title": "flag for Bangladesh",
        "dialCode": "+880"
    },
    {
        "code": "BE",
        "emoji": "ğŸ‡§ğŸ‡ª",
        "unicode": "U+1F1E7 U+1F1EA",
        "name": "å“²å­¦ç³»",
        "title": "flag for Belgium",
        "dialCode": "+32"
    },
    {
        "code": "BF",
        "emoji": "ğŸ‡§ğŸ‡«",
        "unicode": "U+1F1E7 U+1F1EB",
        "name": "éŸ³ä¹å­¦é™¢",
        "title": "flag for Burkina Faso",
        "dialCode": "+226"
    },
    {
        "code": "BG",
        "emoji": "ğŸ‡§ğŸ‡¬",
        "unicode": "U+1F1E7 U+1F1EC",
        "name": "æ”¿æ²»å­¦é™¢",
        "title": "flag for Bulgaria",
        "dialCode": "+359"
    },
    {
        "code": "BH",
        "emoji": "ğŸ‡§ğŸ‡­",
        "unicode": "U+1F1E7 U+1F1ED",
        "name": "æ³•å­¦é™¢",
        "title": "flag for Bahrain",
        "dialCode": "+973"
    },
    {
        "code": "BI",
        "emoji": "ğŸ‡§ğŸ‡®",
        "unicode": "U+1F1E7 U+1F1EE",
        "name": "ç¾æœ¯å­¦é™¢",
        "title": "flag for Burundi",
        "dialCode": "+257"
    },
    {
        "code": "BJ",
        "emoji": "ğŸ‡§ğŸ‡¯",
        "unicode": "U+1F1E7 U+1F1EF",
        "name": "è½¯ä»¶å·¥ç¨‹å­¦é™¢",
        "title": "flag for Benin",
        "dialCode": "+229"
    },
    {
        "code": "BL",
        "emoji": "ğŸ‡§ğŸ‡±",
        "unicode": "U+1F1E7 U+1F1F1",
        "name": "è®¾è®¡å­¦é™¢",
        "title": "flag for Saint BarthÃ©lemy",
        "dialCode": "+590"
    },
    {
        "code": "BM",
        "emoji": "ğŸ‡§ğŸ‡²",
        "unicode": "U+1F1E7 U+1F1F2",
        "name": "æ•™è‚²å­¦éƒ¨",
        "title": "flag for Bermuda",
        "dialCode": "+1 441"
    },
    {
        "code": "BN",
        "emoji": "ğŸ‡§ğŸ‡³",
        "unicode": "U+1F1E7 U+1F1F3",
        "name": "ä½“è‚²ä¸å¥åº·å­¦é™¢",
        "title": "flag for Brunei Darussalam",
        "dialCode": "+673"
    }
]
